[
  {
    "OBJECT_NAME": "STARLINK-3103",
    "OBJECT_ID": "2021-082AZ",
    "EPOCH": "2025-04-16T22:27:46.440288",
    "MEAN_MOTION": 14.98340759,
    "ECCENTRICITY": 0.0002868,
    "INCLINATION": 70.0005,
    "RA_OF_ASC_NODE": 358.3271,
    "ARG_OF_PERICENTER": 270.4334,
    "MEAN_ANOMALY": 89.6497,
    "EPHEMERIS_TYPE": 0,
    "CLASSIFICATION_TYPE": "U",
    "NORAD_CAT_ID": 49177,
    "ELEMENT_SET_NO": 999,
    "REV_AT_EPOCH": 19921,
    "BSTAR": 0.0001104,
    "MEAN_MOTION_DOT": 1.225e-5,
    "MEAN_MOTION_DDOT": 0
  },
  {
    "OBJECT_NAME": "STARLINK-3086",
    "OBJECT_ID": "2021-082BA",
    "EPOCH": "2025-04-16T21:28:22.454112",
    "MEAN_MOTION": 14.98338583,
    "ECCENTRICITY": 0.0002623,
    "INCLINATION": 70.0008,
    "RA_OF_ASC_NODE": 38.4108,
    "ARG_OF_PERICENTER": 269.6431,
    "MEAN_ANOMALY": 90.4427,
    "EPHEMERIS_TYPE": 0,
    "CLASSIFICATION_TYPE": "U",
    "NORAD_CAT_ID": 49178,
    "ELEMENT_SET_NO": 999,
    "REV_AT_EPOCH": 19818,
    "BSTAR": 0.00034667,
    "MEAN_MOTION_DOT": 4.047e-5,
    "MEAN_MOTION_DDOT": 0
  },
  {
    "OBJECT_NAME": "STARLINK-3043",
    "OBJECT_ID": "2021-082BB",
    "EPOCH": "2025-04-16T22:09:44.878176",
    "MEAN_MOTION": 14.98339299,
    "ECCENTRICITY": 0.0003066,
    "INCLINATION": 70,
    "RA_OF_ASC_NODE": 358.3413,
    "ARG_OF_PERICENTER": 265.7752,
    "MEAN_ANOMALY": 94.3056,
    "EPHEMERIS_TYPE": 0,
    "CLASSIFICATION_TYPE": "U",
    "NORAD_CAT_ID": 49179,
    "ELEMENT_SET_NO": 999,
    "REV_AT_EPOCH": 19801,
    "BSTAR": 0.00046515,
    "MEAN_MOTION_DOT": 5.463e-5,
    "MEAN_MOTION_DDOT": 0
  },
  {
    "OBJECT_NAME": "STARLINK-3050",
    "OBJECT_ID": "2021-082BC",
    "EPOCH": "2025-04-16T20:09:55.668096",
    "MEAN_MOTION": 14.98333005,
    "ECCENTRICITY": 0.0002965,
    "INCLINATION": 70,
    "RA_OF_ASC_NODE": 18.5569,
    "ARG_OF_PERICENTER": 265.3486,
    "MEAN_ANOMALY": 94.7335,
    "EPHEMERIS_TYPE": 0,
    "CLASSIFICATION_TYPE": "U",
    "NORAD_CAT_ID": 49180,
    "ELEMENT_SET_NO": 999,
    "REV_AT_EPOCH": 19868,
    "BSTAR": 6.9683e-5,
    "MEAN_MOTION_DOT": 7.39e-6,
    "MEAN_MOTION_DDOT": 0
  },
  {
    "OBJECT_NAME": "STARLINK-3059",
    "OBJECT_ID": "2021-082BD",
    "EPOCH": "2025-04-16T22:40:27.027264",
    "MEAN_MOTION": 14.98333733,
    "ECCENTRICITY": 0.0002642,
    "INCLINATION": 70.0013,
    "RA_OF_ASC_NODE": 38.2991,
    "ARG_OF_PERICENTER": 260.1421,
    "MEAN_ANOMALY": 99.944,
    "EPHEMERIS_TYPE": 0,
    "CLASSIFICATION_TYPE": "U",
    "NORAD_CAT_ID": 49181,
    "ELEMENT_SET_NO": 999,
    "REV_AT_EPOCH": 19822,
    "BSTAR": -3.4492e-6,
    "MEAN_MOTION_DOT": -1.34e-6,
    "MEAN_MOTION_DDOT": 0
  },
  {
    "OBJECT_NAME": "STARLINK-3151",
    "OBJECT_ID": "2021-104A",
    "EPOCH": "2025-04-16T21:13:29.035776",
    "MEAN_MOTION": 15.08853977,
    "ECCENTRICITY": 0.0001461,
    "INCLINATION": 53.2165,
    "RA_OF_ASC_NODE": 256.2354,
    "ARG_OF_PERICENTER": 93.5265,
    "MEAN_ANOMALY": 266.5894,
    "EPHEMERIS_TYPE": 0,
    "CLASSIFICATION_TYPE": "U",
    "NORAD_CAT_ID": 49408,
    "ELEMENT_SET_NO": 999,
    "REV_AT_EPOCH": 18929,
    "BSTAR": 0.00020409,
    "MEAN_MOTION_DOT": 2.963e-5,
    "MEAN_MOTION_DDOT": 0
  },
  {
    "OBJECT_NAME": "STARLINK-3075",
    "OBJECT_ID": "2021-104B",
    "EPOCH": "2025-04-16T21:33:18.410400",
    "MEAN_MOTION": 15.08850325,
    "ECCENTRICITY": 0.0001269,
    "INCLINATION": 53.217,
    "RA_OF_ASC_NODE": 256.1417,
    "ARG_OF_PERICENTER": 82.4361,
    "MEAN_ANOMALY": 277.6776,
    "EPHEMERIS_TYPE": 0,
    "CLASSIFICATION_TYPE": "U",
    "NORAD_CAT_ID": 49409,
    "ELEMENT_SET_NO": 999,
    "REV_AT_EPOCH": 18930,
    "BSTAR": 0.00027493,
    "MEAN_MOTION_DOT": 4.092e-5,
    "MEAN_MOTION_DDOT": 0
  },
  {
    "OBJECT_NAME": "STARLINK-3147",
    "OBJECT_ID": "2021-104C",
    "EPOCH": "2025-04-16T21:24:04.967424",
    "MEAN_MOTION": 15.08857888,
    "ECCENTRICITY": 0.0001457,
    "INCLINATION": 53.2164,
    "RA_OF_ASC_NODE": 256.1829,
    "ARG_OF_PERICENTER": 93.6584,
    "MEAN_ANOMALY": 266.4574,
    "EPHEMERIS_TYPE": 0,
    "CLASSIFICATION_TYPE": "U",
    "NORAD_CAT_ID": 49410,
    "ELEMENT_SET_NO": 999,
    "REV_AT_EPOCH": 18929,
    "BSTAR": 0.00034844,
    "MEAN_MOTION_DOT": 5.264e-5,
    "MEAN_MOTION_DDOT": 0
  },
  {
    "OBJECT_NAME": "STARLINK-3162",
    "OBJECT_ID": "2021-104D",
    "EPOCH": "2025-04-16T19:38:03.216192",
    "MEAN_MOTION": 15.08858585,
    "ECCENTRICITY": 0.0001346,
    "INCLINATION": 53.2171,
    "RA_OF_ASC_NODE": 246.5013,
    "ARG_OF_PERICENTER": 87.0728,
    "MEAN_ANOMALY": 273.0418,
    "EPHEMERIS_TYPE": 0,
    "CLASSIFICATION_TYPE": "U",
    "NORAD_CAT_ID": 49411,
    "ELEMENT_SET_NO": 999,
    "REV_AT_EPOCH": 18942,
    "BSTAR": 0.00012372,
    "MEAN_MOTION_DOT": 1.683e-5,
    "MEAN_MOTION_DDOT": 0
  },
  {
    "OBJECT_NAME": "STARLINK-3157",
    "OBJECT_ID": "2021-104F",
    "EPOCH": "2025-04-16T21:09:30.151872",
    "MEAN_MOTION": 15.08851031,
    "ECCENTRICITY": 0.0001368,
    "INCLINATION": 53.2174,
    "RA_OF_ASC_NODE": 246.226,
    "ARG_OF_PERICENTER": 79.6897,
    "MEAN_ANOMALY": 280.425,
    "EPHEMERIS_TYPE": 0,
    "CLASSIFICATION_TYPE": "U",
    "NORAD_CAT_ID": 49413,
    "ELEMENT_SET_NO": 999,
    "REV_AT_EPOCH": 18943,
    "BSTAR": 9.0115e-5,
    "MEAN_MOTION_DOT": 1.147e-5,
    "MEAN_MOTION_DDOT": 0
  },
  {
    "OBJECT_NAME": "STARLINK-3146",
    "OBJECT_ID": "2021-104G",
    "EPOCH": "2025-04-16T21:17:23.580672",
    "MEAN_MOTION": 15.08853741,
    "ECCENTRICITY": 0.0001305,
    "INCLINATION": 53.2157,
    "RA_OF_ASC_NODE": 256.1955,
    "ARG_OF_PERICENTER": 82.6385,
    "MEAN_ANOMALY": 277.4755,
    "EPHEMERIS_TYPE": 0,
    "CLASSIFICATION_TYPE": "U",
    "NORAD_CAT_ID": 49414,
    "ELEMENT_SET_NO": 999,
    "REV_AT_EPOCH": 18929,
    "BSTAR": 0.00019071,
    "MEAN_MOTION_DOT": 2.75e-5,
    "MEAN_MOTION_DDOT": 0
  },
  {
    "OBJECT_NAME": "STARLINK-3159",
    "OBJECT_ID": "2021-104H",
    "EPOCH": "2025-04-16T21:02:49.890048",
    "MEAN_MOTION": 15.08844492,
    "ECCENTRICITY": 0.0001475,
    "INCLINATION": 53.2176,
    "RA_OF_ASC_NODE": 246.235,
    "ARG_OF_PERICENTER": 91.7688,
    "MEAN_ANOMALY": 268.3473,
    "EPHEMERIS_TYPE": 0,
    "CLASSIFICATION_TYPE": "U",
    "NORAD_CAT_ID": 49415,
    "ELEMENT_SET_NO": 999,
    "REV_AT_EPOCH": 18942,
    "BSTAR": 7.1416e-5,
    "MEAN_MOTION_DOT": 8.49e-6,
    "MEAN_MOTION_DDOT": 0
  },
  {
    "OBJECT_NAME": "STARLINK-3133",
    "OBJECT_ID": "2021-104J",
    "EPOCH": "2025-04-16T21:06:48.368736",
    "MEAN_MOTION": 15.08846445,
    "ECCENTRICITY": 0.0001422,
    "INCLINATION": 53.2174,
    "RA_OF_ASC_NODE": 256.2259,
    "ARG_OF_PERICENTER": 91.6898,
    "MEAN_ANOMALY": 268.4257,
    "EPHEMERIS_TYPE": 0,
    "CLASSIFICATION_TYPE": "U",
    "NORAD_CAT_ID": 49416,
    "ELEMENT_SET_NO": 999,
    "REV_AT_EPOCH": 18929,
    "BSTAR": 8.5686e-5,
    "MEAN_MOTION_DOT": 1.076e-5,
    "MEAN_MOTION_DDOT": 0
  },
  {
    "OBJECT_NAME": "STARLINK-3154",
    "OBJECT_ID": "2021-104K",
    "EPOCH": "2025-04-16T21:45:07.708608",
    "MEAN_MOTION": 15.08874531,
    "ECCENTRICITY": 0.0001208,
    "INCLINATION": 53.2179,
    "RA_OF_ASC_NODE": 245.7546,
    "ARG_OF_PERICENTER": 101.1777,
    "MEAN_ANOMALY": 258.9351,
    "EPHEMERIS_TYPE": 0,
    "CLASSIFICATION_TYPE": "U",
    "NORAD_CAT_ID": 49417,
    "ELEMENT_SET_NO": 999,
    "REV_AT_EPOCH": 18943,
    "BSTAR": 0.00035127,
    "MEAN_MOTION_DOT": 5.312e-5,
    "MEAN_MOTION_DDOT": 0
  }
]
