STARLINK-3103           
1 49177U 21082AZ  25106.93595417  .00001225  00000+0  11040-3 0  9996
2 49177  70.0005 358.3271 0002868 270.4334  89.6497 14.98340759199213
STARLINK-3086           
1 49178U 21082BA  25106.89470433  .00004047  00000+0  34667-3 0  9997
2 49178  70.0008  38.4108 0002623 269.6431  90.4427 14.98338583198189
STARLINK-3043           
1 49179U 21082BB  25106.92343609  .00005463  00000+0  46515-3 0  9994
2 49179  70.0000 358.3413 0003066 265.7752  94.3056 14.98339299198018
STARLINK-3050           
1 49180U 21082BC  25106.84022764  .00000739  00000+0  69683-4 0  9996
2 49180  70.0000  18.5569 0002965 265.3486  94.7335 14.98333005198680
STARLINK-3059           
1 49181U 21082BD  25106.94475726 -.00000134  00000+0 -34492-5 0  9990
2 49181  70.0013  38.2991 0002642 260.1421  99.9440 14.98333733198229
STARLINK-3151           
1 49408U 21104A   25106.88436384  .00002963  00000+0  20409-3 0  9998
2 49408  53.2165 256.2354 0001461  93.5265 266.5894 15.08853977189290
STARLINK-3075           
1 49409U 21104B   25106.89812975  .00004092  00000+0  27493-3 0  9999
2 49409  53.2170 256.1417 0001269  82.4361 277.6776 15.08850325189304
STARLINK-3147           
1 49410U 21104C   25106.89172416  .00005264  00000+0  34844-3 0  9990
2 49410  53.2164 256.1829 0001457  93.6584 266.4574 15.08857888189297
STARLINK-3162           
1 49411U 21104D   25106.81809278  .00001683  00000+0  12372-3 0  9999
2 49411  53.2171 246.5013 0001346  87.0728 273.0418 15.08858585189429
STARLINK-3157           
1 49413U 21104F   25106.88159898  .00001147  00000+0  90115-4 0  9991
2 49413  53.2174 246.2260 0001368  79.6897 280.4250 15.08851031189439
STARLINK-3146           
1 49414U 21104G   25106.88707848  .00002750  00000+0  19071-3 0  9998
2 49414  53.2157 256.1955 0001305  82.6385 277.4755 15.08853741189299
STARLINK-3159           
1 49415U 21104H   25106.87696632  .00000849  00000+0  71416-4 0  9995
2 49415  53.2176 246.2350 0001475  91.7688 268.3473 15.08844492189429
STARLINK-3133           
1 49416U 21104J   25106.87972649  .00001076  00000+0  85686-4 0  9998
2 49416  53.2174 256.2259 0001422  91.6898 268.4257 15.08846445189297
STARLINK-3154           
1 49417U 21104K   25106.90633922  .00005312  00000+0  35127-3 0  9992
2 49417  53.2179 245.7546 0001208 101.1777 258.9351 15.08874531189432
